start=new Date('2022-07-08T00:00:00.000Z').valueOf();
sats=[{"MEAN_MOTION_DOT":"0.00000998","GP_ID":"207628209","APOAPSIS":"548.207","OBJECT_ID":"2020-055AP","SITE":"AFETR","EPHEMERIS_TYPE":"0","REF_FRAME":"TEME","MEAN_ELEMENT_THEORY":"SGP4","CLASSIFICATION_TYPE":"U","PERIAPSIS":"546.211","RA_OF_ASC_NODE":"15.9445","ECCENTRICITY":"0.00014410","TLE_LINE1":"1 46064U 20055AP  22188.83671574  .00000998  00000-0  85887-4 0  9990","BSTAR":"0.00008588700000","LAUNCH_DATE":"2020-08-07","REV_AT_EPOCH":"10693","ELEMENT_SET_NO":"999","TIME_SYSTEM":"UTC","FILE":"3509470","MEAN_MOTION_DDOT":"0.0000000000000","TLE_LINE2":"2 46064  53.0553  15.9445 0001441  74.2367 285.8781 15.06401512106933","OBJECT_NAME":"STARLINK-1583","PERIOD":"95.592","ARG_OF_PERICENTER":"74.2367","NORAD_CAT_ID":"46064","COUNTRY_CODE":"US","MEAN_MOTION":"15.06401512","INCLINATION":"53.0553","OBJECT_TYPE":"PAYLOAD","DECAY_DATE":null,"RCS_SIZE":"LARGE","MEAN_ANOMALY":"285.8781","CENTER_NAME":"EARTH","EPOCH":"2022-07-07T20:04:52.239936","SEMIMAJOR_AXIS":"6925.344"},{"SITE":"AFETR","EPHEMERIS_TYPE":"0","APOAPSIS":"548.122","MEAN_MOTION_DOT":"0.00000624","GP_ID":"207627936","OBJECT_ID":"2020-055AQ","MEAN_ELEMENT_THEORY":"SGP4","REF_FRAME":"TEME","RA_OF_ASC_NODE":"355.9712","CLASSIFICATION_TYPE":"U","PERIAPSIS":"546.294","LAUNCH_DATE":"2020-08-07","REV_AT_EPOCH":"10719","ELEMENT_SET_NO":"999","ECCENTRICITY":"0.00013200","TLE_LINE1":"1 46065U 20055AQ  22188.83023702  .00000624  00000-0  60778-4 0  9993","BSTAR":"0.00006077800000","TLE_LINE2":"2 46065  53.0572 355.9712 0001320  81.9642 278.1497 15.06401757107195","TIME_SYSTEM":"UTC","MEAN_MOTION_DDOT":"0.0000000000000","FILE":"3509470","NORAD_CAT_ID":"46065","COUNTRY_CODE":"US","OBJECT_NAME":"STARLINK-1515","ARG_OF_PERICENTER":"81.9642","PERIOD":"95.592","OBJECT_TYPE":"PAYLOAD","INCLINATION":"53.0572","MEAN_MOTION":"15.06401757","RCS_SIZE":"LARGE","SEMIMAJOR_AXIS":"6925.343","MEAN_ANOMALY":"278.1497","CENTER_NAME":"EARTH","EPOCH":"2022-07-07T19:55:32.478528","DECAY_DATE":null},{"DECAY_DATE":null,"RCS_SIZE":"LARGE","SEMIMAJOR_AXIS":"6925.341","EPOCH":"2022-07-07T20:02:13.291584","CENTER_NAME":"EARTH","MEAN_ANOMALY":"295.0779","INCLINATION":"53.0566","MEAN_MOTION":"15.06402318","OBJECT_TYPE":"PAYLOAD","OBJECT_NAME":"STARLINK-1525","ARG_OF_PERICENTER":"65.0352","PERIOD":"95.592","NORAD_CAT_ID":"46066","COUNTRY_CODE":"US","TIME_SYSTEM":"UTC","MEAN_MOTION_DDOT":"0.0000000000000","FILE":"3509470","TLE_LINE2":"2 46066  53.0566 355.9609 0001370  65.0352 295.0779 15.06402318107207","ECCENTRICITY":"0.00013700","TLE_LINE1":"1 46066U 20055AR  22188.83487606  .00002179  00000-0  16509-3 0  9990","BSTAR":"0.00016509000000","LAUNCH_DATE":"2020-08-07","REV_AT_EPOCH":"10720","ELEMENT_SET_NO":"999","CLASSIFICATION_TYPE":"U","PERIAPSIS":"546.258","RA_OF_ASC_NODE":"355.9609","REF_FRAME":"TEME","MEAN_ELEMENT_THEORY":"SGP4","APOAPSIS":"548.155","GP_ID":"207626713","MEAN_MOTION_DOT":"0.00002179","OBJECT_ID":"2020-055AR","SITE":"AFETR","EPHEMERIS_TYPE":"0"},{"TLE_LINE2":"2 46067  53.0561 355.9290 0001350  82.1430 277.9712 15.06400570107219","MEAN_MOTION_DDOT":"0.0000000000000","FILE":"3509470","TIME_SYSTEM":"UTC","COUNTRY_CODE":"US","NORAD_CAT_ID":"46067","ARG_OF_PERICENTER":"82.1430","PERIOD":"95.592","OBJECT_NAME":"STARLINK-1529","OBJECT_TYPE":"PAYLOAD","INCLINATION":"53.0561","MEAN_MOTION":"15.06400570","SEMIMAJOR_AXIS":"6925.347","CENTER_NAME":"EARTH","EPOCH":"2022-07-07T20:06:09.853056","MEAN_ANOMALY":"277.9712","RCS_SIZE":"LARGE","DECAY_DATE":null,"EPHEMERIS_TYPE":"0","SITE":"AFETR","OBJECT_ID":"2020-055AS","APOAPSIS":"548.147","GP_ID":"207626963","MEAN_MOTION_DOT":"0.00001218","MEAN_ELEMENT_THEORY":"SGP4","REF_FRAME":"TEME","RA_OF_ASC_NODE":"355.9290","PERIAPSIS":"546.277","CLASSIFICATION_TYPE":"U","REV_AT_EPOCH":"10721","ELEMENT_SET_NO":"999","LAUNCH_DATE":"2020-08-07","BSTAR":"0.00010064000000","ECCENTRICITY":"0.00013500","TLE_LINE1":"1 46067U 20055AS  22188.83761404  .00001218  00000-0  10064-3 0  9995"},{"ECCENTRICITY":"0.00015710","TLE_LINE1":"1 46068U 20055AT  22188.84866451  .00002856  00000-0  21052-3 0  9993","BSTAR":"0.00021052000000","LAUNCH_DATE":"2020-08-07","ELEMENT_SET_NO":"999","REV_AT_EPOCH":"10721","CLASSIFICATION_TYPE":"U","PERIAPSIS":"546.116","RA_OF_ASC_NODE":"355.8802","REF_FRAME":"TEME","MEAN_ELEMENT_THEORY":"SGP4","APOAPSIS":"548.292","MEAN_MOTION_DOT":"0.00002856","GP_ID":"207627709","OBJECT_ID":"2020-055AT","SITE":"AFETR","EPHEMERIS_TYPE":"0","DECAY_DATE":null,"RCS_SIZE":"LARGE","SEMIMAJOR_AXIS":"6925.339","EPOCH":"2022-07-07T20:22:04.613664","CENTER_NAME":"EARTH","MEAN_ANOMALY":"294.1861","INCLINATION":"53.0560","MEAN_MOTION":"15.06403077","OBJECT_TYPE":"PAYLOAD","OBJECT_NAME":"STARLINK-1532","PERIOD":"95.592","ARG_OF_PERICENTER":"65.9292","NORAD_CAT_ID":"46068","COUNTRY_CODE":"US","TIME_SYSTEM":"UTC","MEAN_MOTION_DDOT":"0.0000000000000","FILE":"3509470","TLE_LINE2":"2 46068  53.0560 355.8802 0001571  65.9292 294.1861 15.06403077107218"},{"FILE":"3509470","MEAN_MOTION_DDOT":"0.0000000000000","TIME_SYSTEM":"UTC","TLE_LINE2":"2 46069  53.0568 355.8199 0001320  87.4659 272.6481 15.06401769107220","ARG_OF_PERICENTER":"87.4659","PERIOD":"95.592","OBJECT_NAME":"STARLINK-1533","COUNTRY_CODE":"US","NORAD_CAT_ID":"46069","MEAN_MOTION":"15.06401769","INCLINATION":"53.0568","OBJECT_TYPE":"PAYLOAD","DECAY_DATE":null,"MEAN_ANOMALY":"272.6481","CENTER_NAME":"EARTH","EPOCH":"2022-07-07T20:44:40.906176","SEMIMAJOR_AXIS":"6925.343","RCS_SIZE":"LARGE","OBJECT_ID":"2020-055AU","MEAN_MOTION_DOT":"0.00000483","GP_ID":"207628437","APOAPSIS":"548.122","EPHEMERIS_TYPE":"0","SITE":"AFETR","REF_FRAME":"TEME","MEAN_ELEMENT_THEORY":"SGP4","PERIAPSIS":"546.294","CLASSIFICATION_TYPE":"U","RA_OF_ASC_NODE":"355.8199","BSTAR":"0.00005128900000","ECCENTRICITY":"0.00013200","TLE_LINE1":"1 46069U 20055AU  22188.86436234  .00000483  00000-0  51289-4 0  9998","REV_AT_EPOCH":"10722","ELEMENT_SET_NO":"999","LAUNCH_DATE":"2020-08-07"},{"MEAN_ELEMENT_THEORY":"SGP4","REF_FRAME":"TEME","SITE":"AFETR","EPHEMERIS_TYPE":"0","GP_ID":"207627214","MEAN_MOTION_DOT":"0.00001348","APOAPSIS":"547.979","OBJECT_ID":"2020-055AV","LAUNCH_DATE":"2020-08-07","REV_AT_EPOCH":"10722","ELEMENT_SET_NO":"999","ECCENTRICITY":"0.00011280","TLE_LINE1":"1 46070U 20055AV  22188.87909681  .00001348  00000-0  10937-3 0  9997","BSTAR":"0.00010937000000","RA_OF_ASC_NODE":"355.7606","CLASSIFICATION_TYPE":"U","PERIAPSIS":"546.417","NORAD_CAT_ID":"46070","COUNTRY_CODE":"US","OBJECT_NAME":"STARLINK-1536","PERIOD":"95.592","ARG_OF_PERICENTER":"94.9974","TLE_LINE2":"2 46070  53.0579 355.7606 0001128  94.9974 265.1144 15.06405102107223","TIME_SYSTEM":"UTC","FILE":"3509470","MEAN_MOTION_DDOT":"0.0000000000000","RCS_SIZE":"LARGE","CENTER_NAME":"EARTH","MEAN_ANOMALY":"265.1144","EPOCH":"2022-07-07T21:05:53.964384","SEMIMAJOR_AXIS":"6925.333","DECAY_DATE":null,"OBJECT_TYPE":"PAYLOAD","MEAN_MOTION":"15.06405102","INCLINATION":"53.0579"},{"TIME_SYSTEM":"UTC","MEAN_MOTION_DDOT":"0.0000000000000","FILE":"3509470","TLE_LINE2":"2 46071  53.0570 355.9568 0001468  75.9421 284.1731 15.06407647107215","OBJECT_NAME":"STARLINK-1538","PERIOD":"95.592","ARG_OF_PERICENTER":"75.9421","NORAD_CAT_ID":"46071","COUNTRY_CODE":"US","INCLINATION":"53.0570","MEAN_MOTION":"15.06407647","OBJECT_TYPE":"PAYLOAD","DECAY_DATE":null,"RCS_SIZE":"LARGE","SEMIMAJOR_AXIS":"6925.325","EPOCH":"2022-07-07T19:56:54.803904","MEAN_ANOMALY":"284.1731","CENTER_NAME":"EARTH","APOAPSIS":"548.207","MEAN_MOTION_DOT":"0.00003262","GP_ID":"207627463","OBJECT_ID":"2020-055AW","SITE":"AFETR","EPHEMERIS_TYPE":"0","REF_FRAME":"TEME","MEAN_ELEMENT_THEORY":"SGP4","CLASSIFICATION_TYPE":"U","PERIAPSIS":"546.173","RA_OF_ASC_NODE":"355.9568","ECCENTRICITY":"0.00014680","TLE_LINE1":"1 46071U 20055AW  22188.83118986  .00003262  00000-0  23771-3 0  9991","BSTAR":"0.00023771000000","LAUNCH_DATE":"2020-08-07","REV_AT_EPOCH":"10721","ELEMENT_SET_NO":"999"},{"OBJECT_ID":"2020-055AX","APOAPSIS":"548.293","MEAN_MOTION_DOT":"0.00000958","GP_ID":"207628210","EPHEMERIS_TYPE":"0","SITE":"AFETR","REF_FRAME":"TEME","MEAN_ELEMENT_THEORY":"SGP4","PERIAPSIS":"546.128","CLASSIFICATION_TYPE":"U","RA_OF_ASC_NODE":"355.8662","BSTAR":"0.00008319300000","TLE_LINE1":"1 46072U 20055AX  22188.85604666  .00000958  00000-0  83193-4 0  9993","ECCENTRICITY":"0.00015630","ELEMENT_SET_NO":"999","REV_AT_EPOCH":"10720","LAUNCH_DATE":"2020-08-07","MEAN_MOTION_DDOT":"0.0000000000000","FILE":"3509470","TIME_SYSTEM":"UTC","TLE_LINE2":"2 46072  53.0560 355.8662 0001563  74.7435 285.3727 15.06401112107205","ARG_OF_PERICENTER":"74.7435","PERIOD":"95.592","OBJECT_NAME":"STARLINK-1539","COUNTRY_CODE":"US","NORAD_CAT_ID":"46072","INCLINATION":"53.0560","MEAN_MOTION":"15.06401112","OBJECT_TYPE":"PAYLOAD","DECAY_DATE":null,"SEMIMAJOR_AXIS":"6925.345","EPOCH":"2022-07-07T20:32:42.431424","CENTER_NAME":"EARTH","MEAN_ANOMALY":"285.3727","RCS_SIZE":"LARGE"},{"EPHEMERIS_TYPE":"0","SITE":"AFETR","OBJECT_ID":"2020-055AY","APOAPSIS":"548.193","GP_ID":"207627937","MEAN_MOTION_DOT":"0.00003650","MEAN_ELEMENT_THEORY":"SGP4","REF_FRAME":"TEME","RA_OF_ASC_NODE":"355.7976","PERIAPSIS":"546.171","CLASSIFICATION_TYPE":"U","REV_AT_EPOCH":"10721","ELEMENT_SET_NO":"999","LAUNCH_DATE":"2020-08-07","BSTAR":"0.00026373000000","TLE_LINE1":"1 46073U 20055AY  22188.87172505  .00003650  00000-0  26373-3 0  9996","ECCENTRICITY":"0.00014600","TLE_LINE2":"2 46073  53.0557 355.7976 0001460  71.9982 288.1166 15.06410226107216","MEAN_MOTION_DDOT":"0.0000000000000","FILE":"3509470","TIME_SYSTEM":"UTC","COUNTRY_CODE":"US","NORAD_CAT_ID":"46073","ARG_OF_PERICENTER":"71.9982","PERIOD":"95.591","OBJECT_NAME":"STARLINK-1542","OBJECT_TYPE":"PAYLOAD","INCLINATION":"53.0557","MEAN_MOTION":"15.06410226","SEMIMAJOR_AXIS":"6925.317","EPOCH":"2022-07-07T20:55:17.044320","CENTER_NAME":"EARTH","MEAN_ANOMALY":"288.1166","RCS_SIZE":"LARGE","DECAY_DATE":null}];
